NORAD_CAT_ID,OBJECT_NAME,OBJECT_TYPE,EPOCH,MEAN_MOTION,ECCENTRICITY,INCLINATION,RA_OF_ASC_NODE,ARG_OF_PERICENTER,MEAN_ANOMALY,BSTAR,MEAN_MOTION_DOT,MEAN_MOTION_DDOT,TLE_LINE0,TLE_LINE1,TLE_LINE2,SEMIMAJOR_AXIS,PERIOD,APOGEE,PERIGEE,DECAYED
52284.0,STARLINK-3561,PAYLOAD,2022-05-14 22:00:00,15.73276471,0.0002451,53.2144,259.8326,17.6256,160.2533,-0.00041932,-0.0005926,0.0,0 STARLINK-3561,1 52284U 22041Z   22134.91667824 -.00059260  00000-0 -41932-3 0  9991,2 52284  53.2144 259.8326 0002451  17.6256 160.2533 15.73276471  4889,6727.677,91.529,351.191,347.89300000000014,0.0
52284.0,STARLINK-3561,PAYLOAD,2022-05-15 06:00:00,15.73204695,0.0002286,53.2174,258.1837,26.3798,240.194,-5.4685e-06,-1.389e-05,0.0,0 STARLINK-3561,1 52284U 22041Z   22135.25001157 -.00001389  00000-0 -54685-5 0  9990,2 52284  53.2174 258.1837 0002286  26.3798 240.1940 15.73204695  4941,6727.882,91.533,351.285,348.209,0.0
52284.0,STARLINK-3561,PAYLOAD,2022-05-15 14:00:01,15.73234181,0.0002599,53.2144,256.5332,22.6857,333.1615,-0.00060854,-0.00085307,0.0,0 STARLINK-3561,1 52284U 22041Z   22135.58335648 -.00085307  00000-0 -60854-3 0  9996,2 52284  53.2144 256.5332 0002599  22.6857 333.1615 15.73234181  4992,6727.7980000000025,91.531,351.411,347.914,0.0
52284.0,STARLINK-3561,PAYLOAD,2022-05-15 22:00:00,15.73203799,0.0002655,53.2138,254.8836,18.7893,65.9384,0.00036772,0.00051316,0.0,0 STARLINK-3561,1 52284U 22041Z   22135.91667824  .00051316  00000-0  36772-3 0  9990,2 52284  53.2138 254.8836 0002655  18.7893  65.9384 15.73203799  5045,6727.884,91.533,351.536,347.963,0.0
52284.0,STARLINK-3561,PAYLOAD,2022-05-16 06:00:02,15.73213146,0.000238,53.214,253.2322,18.9004,154.835,-6.2982e-06,-1.506e-05,0.0,0 STARLINK-3561,1 52284U 22041Z   22136.25002315 -.00001506  00000-0 -62982-5 0  9998,2 52284  53.2140 253.2322 0002380  18.9004 154.8350 15.73213146  5095,6727.858,91.532,351.324,348.121,0.0
52284.0,STARLINK-3561,PAYLOAD,2022-05-16 14:00:01,15.73216318,0.0002644,53.2145,251.5851,18.5177,244.0988,-0.00067622,-0.00094551,0.0,0 STARLINK-3561,1 52284U 22041Z   22136.58334491 -.00094551  00000-0 -67622-3 0  9993,2 52284  53.2145 251.5851 0002644  18.5177 244.0988 15.73216318  1301,6727.849,91.532,351.492,347.935,0.0
52284.0,STARLINK-3561,PAYLOAD,2022-05-16 20:00:01,15.73139644,0.0002787,53.2142,250.348,14.8036,224.5049,0.00048105,0.00067268,0.0,0 STARLINK-3561,1 52284U 22041Z   22136.83334491  .00067268  00000-0  48105-3 0  9999,2 52284  53.2142 250.3480 0002787  14.8036 224.5049 15.73139644  5192,6728.066999999999,91.537,351.807,348.057,0.0
52284.0,STARLINK-3561,PAYLOAD,2022-05-16 22:00:00,15.73157551,0.0002753,53.2143,249.9351,14.8744,336.6486,0.00034872,0.0004852,0.0,0 STARLINK-3561,1 52284U 22041Z   22136.91667824  .00048520  00000-0  34872-3 0  9993,2 52284  53.2143 249.9351 0002753  14.8744 336.6486 15.73157551  1309,6728.016,91.536,351.733,348.029,0.0
52284.0,STARLINK-3561,PAYLOAD,2022-05-17 12:00:00,15.73203584,0.0002842,53.2143,247.0484,19.3404,37.7801,-1.1183e-05,-2.192e-05,0.0,0 STARLINK-3561,1 52284U 22041Z   22137.50001157 -.00002192  00000-0 -11183-4 0  9998,2 52284  53.2143 247.0484 0002842  19.3404  37.7801 15.73203584  5297,6727.885,91.533,351.662,347.838,0.0
52284.0,STARLINK-3561,PAYLOAD,2022-05-17 14:00:01,15.73198485,0.0002935,53.2141,246.6364,19.1852,150.2359,4.8389e-05,6.174e-05,0.0,0 STARLINK-3561,1 52284U 22041Z   22137.58335648  .00006174  00000-0  48389-4 0  9991,2 52284  53.2141 246.6364 0002935  19.1852 150.2359 15.73198485  1305,6727.899,91.533,351.73900000000015,347.79,0.0
52284.0,STARLINK-3561,PAYLOAD,2022-05-17 22:00:01,15.73240409,0.0002886,53.2133,244.9864,14.3884,243.976,-0.00071582,-0.00100096,0.0,0 STARLINK-3561,1 52284U 22041Z   22137.91668981 -.00100096  00000-0 -71582-3 0  9997,2 52284  53.2133 244.9864 0002886  14.3884 243.9760 15.73240409  1309,6727.78,91.531,351.587,347.70300000000015,0.0
52284.0,STARLINK-3561,PAYLOAD,2022-05-18 14:00:01,15.73252971,0.0002972,53.2136,241.6883,10.7615,65.3827,-0.00037057,-0.00052438,0.0,0 STARLINK-3561,1 52284U 22041Z   22138.58334491 -.00052438  00000-0 -37057-3 0  9992,2 52284  53.2136 241.6883 0002972  10.7615  65.3827 15.73252971  1302,6727.744000000002,91.53,351.6090000000001,347.61,0.0
52284.0,STARLINK-3561,PAYLOAD,2022-05-18 20:00:01,15.73254901,0.0003107,53.2137,240.451,8.9602,43.9198,-0.00077964,-0.00108925,0.0,0 STARLINK-3561,1 52284U 22041Z   22138.83334491 -.00108925  00000-0 -77964-3 0  9994,2 52284  53.2137 240.4510 0003107   8.9602  43.9198 15.73254901  5507,6727.739000000001,91.53,351.694,347.51300000000015,0.0
52284.0,STARLINK-3561,PAYLOAD,2022-05-18 22:00:00,15.73257523,0.0003039,53.214,240.038,9.5401,155.5795,-0.0010995999999999,-0.00152603,0.0,0 STARLINK-3561,1 52284U 22041Z   22138.91667824 -.00152603  00000-0 -10996-2 0  9995,2 52284  53.2140 240.0380 0003039   9.5401 155.5795 15.73257523  1300,6727.731,91.53,351.641,347.552,0.0
52284.0,STARLINK-3561,PAYLOAD,2022-05-19 14:00:01,15.73147034,0.0003242,53.2149,236.7398,10.8487,332.1102,0.00045727,0.0006391,0.0,0 STARLINK-3561,1 52284U 22041Z   22139.58335648  .00063910  00000-0  45727-3 0  9996,2 52284  53.2149 236.7398 0003242  10.8487 332.1102 15.73147034  1305,6728.045999999999,91.536,352.092,347.73,0.0
52284.0,STARLINK-3561,PAYLOAD,2022-05-19 22:00:00,15.73207323,0.0003164,53.2142,235.0895,10.6777,61.1121,7.950600000000001e-05,0.00010555,0.0,0 STARLINK-3561,1 52284U 22041Z   22139.91667824  .00010555  00000-0  79506-4 0  9997,2 52284  53.2142 235.0895 0003164  10.6777  61.1121 15.73207323  5677,6727.874,91.533,351.86800000000005,347.611,0.0
52284.0,STARLINK-3561,PAYLOAD,2022-05-20 04:00:00,15.73216269,0.0002997,53.2152,233.851,10.208,38.3443,0.00021507,0.00029695,0.0,0 STARLINK-3561,1 52284U 22041Z   22140.16667824  .00029695  00000-0  21507-3 0  9998,2 52284  53.2152 233.8510 0002997  10.2080  38.3443 15.73216269  5711,6727.849,91.532,351.73,347.69699999999995,0.0
52284.0,STARLINK-3561,PAYLOAD,2022-05-20 14:00:01,15.73232432,0.0003369,53.2146,231.7913,8.9681,240.8023,-0.00040978,-0.00057839,0.0,0 STARLINK-3561,1 52284U 22041Z   22140.58334491 -.00057839  00000-0 -40978-3 0  9991,2 52284  53.2146 231.7913 0003369   8.9681 240.8023 15.73232432  1308,6727.803000000001,91.531,351.934,347.401,0.0
52284.0,STARLINK-3561,PAYLOAD,2022-05-20 22:00:00,15.73220281,0.0003318,53.215,230.1406,8.8872,329.8224,-0.00064824,-0.00090735,0.0,0 STARLINK-3561,1 52284U 22041Z   22140.91667824 -.00090735  00000-0 -64824-3 0  9995,2 52284  53.2150 230.1406 0003318   8.8872 329.8224 15.73220281  5830,6727.837,91.532,351.935,347.47,0.0
52284.0,STARLINK-3561,PAYLOAD,2022-05-21 06:00:00,15.73164821,0.0003314,53.2148,228.4901,13.8573,53.7724,0.00060786,0.00085448,0.0,0 STARLINK-3561,1 52284U 22041Z   22141.25001157  .00085448  00000-0  60786-3 0  9990,2 52284  53.2148 228.4901 0003314  13.8573  53.7724 15.73164821  5887,6727.995,91.535,352.09,347.631,0.0
52284.0,STARLINK-3561,PAYLOAD,2022-05-21 14:00:01,15.73253149,0.0003602,53.2145,226.8426,10.7316,145.9058,-0.00053006,-0.00074558,0.0,0 STARLINK-3561,1 52284U 22041Z   22141.58335648 -.00074558  00000-0 -53006-3 0  9990,2 52284  53.2145 226.8426 0003602  10.7316 145.9058 15.73253149  1308,6727.744000000002,91.53,352.032,347.185,0.0
52284.0,STARLINK-3561,PAYLOAD,2022-05-21 20:00:01,15.73220685,0.0003579,53.2138,225.6046,7.3144,126.002,-0.0002215,-0.00031632,0.0,0 STARLINK-3561,1 52284U 22041Z   22141.83334491 -.00031632  00000-0 -22150-3 0  9995,2 52284  53.2138 225.6046 0003579   7.3144 126.0020 15.73220685  5974,6727.8359999999975,91.532,352.1090000000001,347.293,0.0
52284.0,STARLINK-3561,PAYLOAD,2022-05-21 22:00:00,15.73200845,0.0003509,53.2139,225.1916,7.261,238.2967,5.9912e-05,7.795e-05,0.0,0 STARLINK-3561,1 52284U 22041Z   22141.91667824  .00007795  00000-0  59912-4 0  9991,2 52284  53.2139 225.1916 0003509   7.2610 238.2967 15.73200845  1301,6727.893,91.533,352.119,347.397,0.0
52284.0,STARLINK-3561,PAYLOAD,2022-05-22 14:00:01,15.7320592,0.0003668,53.2145,221.8939,7.149,56.2547,-0.00052021,-0.00073051,0.0,0 STARLINK-3561,1 52284U 22041Z   22142.58334491 -.00073051  00000-0 -52021-3 0  9999,2 52284  53.2145 221.8939 0003668   7.1490  56.2547 15.73205920  1308,6727.878000000002,91.533,352.211,347.276,0.0
52284.0,STARLINK-3561,PAYLOAD,2022-05-22 22:00:01,15.73155626,0.0003641,53.2146,220.2428,4.3801,148.0197,0.00034055,0.00047364,0.0,0 STARLINK-3561,1 52284U 22041Z   22142.91668981  .00047364  00000-0  34055-3 0  9993,2 52284  53.2146 220.2428 0003641   4.3801 148.0197 15.73155626  6146,6728.022,91.536,352.336,347.43699999999984,0.0
52284.0,STARLINK-3561,PAYLOAD,2022-05-23 14:00:01,15.73167362,0.0003966,53.2147,216.9454,9.4659,320.6494,0.00038509,0.00053712,0.0,0 STARLINK-3561,1 52284U 22041Z   22143.58334491  .00053712  00000-0  38509-3 0  9995,2 52284  53.2147 216.9454 0003966   9.4659 320.6494 15.73167362  6255,6727.988,91.535,352.522,347.185,0.0
52284.0,STARLINK-3561,PAYLOAD,2022-05-23 22:00:01,15.73199961,0.0003771,53.2143,215.2942,7.973,51.1445,2.658300000000001e-05,3.109e-05,0.0,0 STARLINK-3561,1 52284U 22041Z   22143.91668981  .00003109  00000-0  26583-4 0  9991,2 52284  53.2143 215.2942 0003771   7.9730  51.1445 15.73199961  1305,6727.895,91.533,352.297,347.223,0.0
52284.0,STARLINK-3561,PAYLOAD,2022-05-24 04:00:00,15.73210191,0.0003716,53.2145,214.0564,9.8429,25.8915,-0.00010016,-0.00014668,0.0,0 STARLINK-3561,1 52284U 22041Z   22144.16667824 -.00014668  00000-0 -10016-3 0  9991,2 52284  53.2145 214.0564 0003716   9.8429  25.8915 15.73210191  6347,6727.866,91.533,352.231,347.231,0.0
52284.0,STARLINK-3561,PAYLOAD,2022-05-24 12:59:52,15.73159943,0.000387,53.2157,212.2019,11.9107,348.2004,-6.2215e-05,-9.335e-05,0.0,0 STARLINK-3561,1 52284U 22041Z   22144.54157710 -.00009335  00000-0 -62215-4 0  9995,2 52284  53.2157 212.2019 0003870  11.9107 348.2004 15.73159943  5182,6728.009,91.536,352.478,347.271,0.0
